NORAD_CAT_ID,OBJECT_NAME,OBJECT_TYPE,EPOCH,MEAN_MOTION,ECCENTRICITY,INCLINATION,RA_OF_ASC_NODE,ARG_OF_PERICENTER,MEAN_ANOMALY,BSTAR,MEAN_MOTION_DOT,MEAN_MOTION_DDOT,TLE_LINE0,TLE_LINE1,TLE_LINE2,SEMIMAJOR_AXIS,PERIOD,APOGEE,PERIGEE,DECAYED
50188.0,STARLINK-3275,PAYLOAD,2024-07-02 21:27:07,15.12120387,0.0001429,53.2183,96.3608,98.9454,261.1701,-1.2084e-05,-5.08e-06,0.0,0 STARLINK-3275,1 50188U 21125AJ  24184.89383109 -.00000508  00000-0 -12084-4 0  9997,2 50188  53.2183  96.3608 0001429  98.9454 261.1701 15.12120387141153,6907.872,95.231,530.724,528.75,0.0
50188.0,STARLINK-3275,PAYLOAD,2024-07-03 21:14:48,15.12112588,0.0001427,53.2187,91.8875,100.2079,259.9076,2.1726e-05,8.1e-07,0.0,0 STARLINK-3275,1 50188U 21125AJ  24185.88527906  .00000081  00000-0  21726-4 0  9999,2 50188  53.2187  91.8875 0001427 100.2079 259.9076 15.12112588141302,6907.895,95.231,530.746,528.775,0.0
50188.0,STARLINK-3275,PAYLOAD,2024-07-03 22:49:59,15.12099846,0.0001357,53.2184,91.59,98.7416,261.3731,0.00012073,1.806e-05,0.0,0 STARLINK-3275,1 50188U 21125AJ  24185.95138057  .00001806  00000-0  12073-3 0  9992,2 50188  53.2184  91.5900 0001357  98.7416 261.3731 15.12099846144458,6907.934,95.232,530.737,528.862,0.0
50188.0,STARLINK-3275,PAYLOAD,2024-07-04 03:35:31,15.12108225,0.0001289,53.2182,90.6952,99.1992,260.9148,2.0074e-05,5.2e-07,0.0,0 STARLINK-3275,1 50188U 21125AJ  24186.14966755  .00000052  00000-0  20074-4 0  9991,2 50188  53.2182  90.6952 0001289  99.1992 260.9148 15.12108225144483,6907.909,95.231,530.664,528.883,0.0
50188.0,STARLINK-3275,PAYLOAD,2024-07-04 22:37:39,15.12115378,0.0001202,53.2178,87.1172,96.9296,263.1834,1.8664e-05,2.8e-07,0.0,0 STARLINK-3275,1 50188U 21125AJ  24186.94281865  .00000028  00000-0  18664-4 0  9996,2 50188  53.2178  87.1172 0001202  96.9296 263.1834 15.12115378144608,6907.887,95.231,530.582,528.922,0.0
50188.0,STARLINK-3275,PAYLOAD,2024-07-05 03:23:11,15.1211398,0.0001112,53.2173,86.2241,92.8074,267.3047,-4.0393e-05,-1.001e-05,0.0,0 STARLINK-3275,1 50188U 21125AJ  24187.14111111 -.00001001  00000-0 -40393-4 0  9993,2 50188  53.2173  86.2241 0001112  92.8074 267.3047 15.12113980141492,6907.891,95.231,530.524,528.988,0.0
50188.0,STARLINK-3275,PAYLOAD,2024-07-05 22:25:20,15.12112766,0.0001097,53.2175,82.6457,91.4429,268.669,-3.7039e-06,-3.62e-06,0.0,0 STARLINK-3275,1 50188U 21125AJ  24187.93426775 -.00000362  00000-0 -37039-5 0  9998,2 50188  53.2175  82.6457 0001097  91.4429 268.6690 15.12112766144755,6907.895,95.231,530.518,529.002,0.0
50188.0,STARLINK-3275,PAYLOAD,2024-07-06 09:31:36,15.1211039,0.0001128,53.2172,80.5585,91.4662,268.6461,-3.4235e-05,-8.94e-06,0.0,0 STARLINK-3275,1 50188U 21125AJ  24188.39694521 -.00000894  00000-0 -34235-4 0  9999,2 50188  53.2172  80.5585 0001128  91.4662 268.6461 15.12110390141681,6907.902,95.231,530.546,528.988,0.0
50188.0,STARLINK-3275,PAYLOAD,2024-07-06 22:13:01,15.12105615,0.0001169,53.2172,78.1731,94.9433,265.1694,6.8784e-05,9.01e-06,0.0,0 STARLINK-3275,1 50188U 21125AJ  24188.92571522  .00000901  00000-0  68784-4 0  9996,2 50188  53.2172  78.1731 0001169  94.9433 265.1694 15.12105615144908,6907.917,95.231,530.589,528.974,0.0
50188.0,STARLINK-3275,PAYLOAD,2024-07-07 09:19:17,15.1211037,0.0001126,53.2169,76.0864,97.5296,262.5825,-2.4269e-05,-7.2e-06,0.0,0 STARLINK-3275,1 50188U 21125AJ  24189.38839159 -.00000720  00000-0 -24269-4 0  9991,2 50188  53.2169  76.0864 0001126  97.5296 262.5825 15.12110370144975,6907.902,95.231,530.545,528.989,0.0
50188.0,STARLINK-3275,PAYLOAD,2024-07-07 20:25:31,15.12120076,0.0001121,53.2168,73.999,105.0661,255.0457,-6.754e-06,-4.15e-06,0.0,0 STARLINK-3275,1 50188U 21125AJ  24189.85106032 -.00000415  00000-0 -67540-5 0  9991,2 50188  53.2168  73.9990 0001121 105.0661 255.0457 15.12120076141908,6907.873,95.231,530.512,528.963,0.0
50188.0,STARLINK-3275,PAYLOAD,2024-07-08 09:06:58,15.12110829,0.0001069,53.2171,71.6124,95.7145,264.3971,-5.4348e-05,-1.244e-05,0.0,0 STARLINK-3275,1 50188U 21125AJ  24190.37983918 -.00001244  00000-0 -54348-4 0  9998,2 50188  53.2171  71.6124 0001069  95.7145 264.3971 15.12110829141986,6907.901,95.231,530.504,529.027,0.0
50188.0,STARLINK-3275,PAYLOAD,2024-07-08 21:48:23,15.12115643,9.61e-05,53.2161,69.2233,82.4647,277.6455,3.4042e-05,2.96e-06,0.0,0 STARLINK-3275,1 50188U 21125AJ  24190.90860394  .00000296  00000-0  34042-4 0  9992,2 50188  53.2161  69.2233 0000961  82.4647 277.6455 15.12115643145201,6907.886,95.231,530.415,529.087,0.0
50188.0,STARLINK-3275,PAYLOAD,2024-07-09 00:58:44,15.12115049,7.78e-05,53.216,68.6275,83.5857,276.5225,-3.6127e-06,-3.6e-06,0.0,0 STARLINK-3275,1 50188U 21125AJ  24191.04079840 -.00000360  00000-0 -36127-5 0  9997,2 50188  53.2160  68.6275 0000778  83.5857 276.5225 15.12115049142086,6907.888,95.231,530.29,529.216,0.0
50188.0,STARLINK-3275,PAYLOAD,2024-07-09 08:54:38,15.12114823,7.13e-05,53.2159,67.1366,87.4805,272.627,-3.5229e-07,-3.03e-06,0.0,0 STARLINK-3275,1 50188U 21125AJ  24191.37127995 -.00000303  00000-0 -35229-6 0  9998,2 50188  53.2159  67.1366 0000713  87.4805 272.6270 15.12114823145274,6907.889,95.231,530.246,529.261,0.0
50188.0,STARLINK-3275,PAYLOAD,2024-07-09 21:36:04,15.12116919,0.0001055,53.2179,64.7501,86.2899,273.8215,1.5188e-06,-2.71e-06,0.0,0 STARLINK-3275,1 50188U 21125AJ  24191.90005095 -.00000271  00000-0  15188-5 0  9997,2 50188  53.2179  64.7501 0001055  86.2899 273.8215 15.12116919145359,6907.882,95.231,530.476,529.018,0.0
50188.0,STARLINK-3275,PAYLOAD,2024-07-10 08:42:19,15.12109279,8.66e-05,53.2177,62.6634,88.3513,271.758,-5.3075e-06,-3.9e-06,0.0,0 STARLINK-3275,1 50188U 21125AJ  24192.36273040 -.00000390  00000-0 -53075-5 0  9995,2 50188  53.2177  62.6634 0000866  88.3513 271.7580 15.12109279142288,6907.906,95.231,530.369,529.172,0.0
50188.0,STARLINK-3275,PAYLOAD,2024-07-10 21:23:45,15.12121592,9e-05,53.2181,60.2783,83.9614,276.1482,1.9111e-05,3.6e-07,0.0,0 STARLINK-3275,1 50188U 21125AJ  24192.89149315  .00000036  00000-0  19111-4 0  9997,2 50188  53.2181  60.2783 0000900  83.9614 276.1482 15.12121592142365,6907.868,95.23,530.355,529.111,0.0
50188.0,STARLINK-3275,PAYLOAD,2024-07-11 00:34:06,15.12119355,9.43e-05,53.2173,59.6837,78.9151,281.1949,5.0022e-05,5.74e-06,0.0,0 STARLINK-3275,1 50188U 21125AJ  24193.02368628  .00000574  00000-0  50022-4 0  9996,2 50188  53.2173  59.6837 0000943  78.9151 281.1949 15.12119355145524,6907.875,95.231,530.391,529.088,0.0
50188.0,STARLINK-3275,PAYLOAD,2024-07-11 21:11:26,15.12114068,7.27e-05,53.2177,55.8062,78.3108,281.7967,2.4237e-05,1.25e-06,0.0,0 STARLINK-3275,1 50188U 21125AJ  24193.88294235  .00000125  00000-0  24237-4 0  9993,2 50188  53.2177  55.8062 0000727  78.3108 281.7967 15.12114068142510,6907.891,95.231,530.258,529.254,0.0
50188.0,STARLINK-3275,PAYLOAD,2024-07-12 14:38:24,15.12118907,9.61e-05,53.2181,52.525,78.1942,281.916,-9.3536e-06,-4.6e-06,0.0,0 STARLINK-3275,1 50188U 21125AJ  24194.61000169 -.00000460  00000-0 -93536-5 0  9999,2 50188  53.2181  52.5250 0000961  78.1942 281.9160 15.12118907145765,6907.876,95.231,530.405,529.077,0.0
50188.0,STARLINK-3275,PAYLOAD,2024-07-12 20:59:06,15.12121946,9.56e-05,53.2179,51.3324,78.5092,281.6009,1.8215e-05,2e-07,0.0,0 STARLINK-3275,1 50188U 21125AJ  24194.87438342  .00000020  00000-0  18215-4 0  9995,2 50188  53.2179  51.3324 0000956  78.5092 281.6009 15.12121946145806,6907.867,95.23,530.392,529.072,0.0
50188.0,STARLINK-3275,PAYLOAD,2024-07-13 08:05:22,15.12106702,9.86e-05,53.2167,49.2445,84.743,275.3677,9.1964e-05,1.305e-05,0.0,0 STARLINK-3275,1 50188U 21125AJ  24195.33706433  .00001305  00000-0  91964-4 0  9995,2 50188  53.2167  49.2445 0000986  84.7430 275.3677 15.12106702142734,6907.913,95.231,530.459,529.097,0.0
50188.0,STARLINK-3275,PAYLOAD,2024-07-13 20:46:48,15.12106508,9.6e-05,53.2172,46.8589,78.8766,281.2335,7.2846e-05,9.72e-06,0.0,0 STARLINK-3275,1 50188U 21125AJ  24195.86583474  .00000972  00000-0  72846-4 0  9998,2 50188  53.2172  46.8589 0000960  78.8766 281.2335 15.12106508145958,6907.914,95.231,530.442,529.116,0.0
50188.0,STARLINK-3275,PAYLOAD,2024-07-13 23:57:09,15.1210525,9.35e-05,53.2172,46.2625,77.2273,282.8825,0.0001007,1.457e-05,0.0,0 STARLINK-3275,1 50188U 21125AJ  24195.99802739  .00001457  00000-0  10070-3 0  9999,2 50188  53.2172  46.2625 0000935  77.2273 282.8825 15.12105250145977,6907.918,95.231,530.429,529.137,0.0
50188.0,STARLINK-3275,PAYLOAD,2024-07-14 20:34:28,15.12117898,0.0001149,53.218,42.384,86.3554,273.7571,-1.09e-05,-4.87e-06,0.0,0 STARLINK-3275,1 50188U 21125AJ  24196.85727631 -.00000487  00000-0 -10900-4 0  9999,2 50188  53.2180  42.3840 0001149  86.3554 273.7571 15.12117898142967,6907.879,95.231,530.538,528.951,0.0
50188.0,STARLINK-3275,PAYLOAD,2024-07-15 14:01:27,15.12110193,0.0001226,53.2188,39.1055,85.7533,274.3601,-3.1747e-05,-8.5e-06,0.0,0 STARLINK-3275,1 50188U 21125AJ  24197.58434254 -.00000850  00000-0 -31747-4 0  9992,2 50188  53.2188  39.1055 0001226  85.7533 274.3601 15.12110193146217,6907.903,95.231,530.615,528.921,0.0
50188.0,STARLINK-3275,PAYLOAD,2024-07-15 20:22:09,15.12115046,0.0001251,53.2186,37.9136,82.0122,278.1013,3.8436e-06,-2.3e-06,0.0,0 STARLINK-3275,1 50188U 21125AJ  24197.84872421 -.00000230  00000-0  38436-5 0  9997,2 50188  53.2186  37.9136 0001251  82.0122 278.1013 15.12115046146258,6907.888,95.231,530.617,528.889,0.0
50188.0,STARLINK-3275,PAYLOAD,2024-07-16 05:53:14,15.12111556,0.0001213,53.2183,36.1221,78.6854,281.4276,4.912e-06,-2.12e-06,0.0,0 STARLINK-3275,1 50188U 21125AJ  24198.24530518 -.00000212  00000-0  49120-5 0  9992,2 50188  53.2183  36.1221 0001213  78.6854 281.4276 15.12111556143170,6907.899,95.231,530.602,528.926,0.0
50188.0,STARLINK-3275,PAYLOAD,2024-07-16 18:34:39,15.12115433,0.0001199,53.218,33.7351,76.7271,283.3857,-4.915e-09,-2.97e-06,0.0,0 STARLINK-3275,1 50188U 21125AJ  24198.77407247 -.00000297  00000-0 -49150-8 0  9992,2 50188  53.2180  33.7351 0001199  76.7271 283.3857 15.12115433146390,6907.887,95.231,530.58,528.924,0.0
